CCSDS_OMM_VERS = 2.0
CREATION_DATE  = 
ORIGINATOR     = 

OBJECT_NAME    = CYGNUS NG-23
OBJECT_ID      = 2025-208A
CENTER_NAME    = EARTH
REF_FRAME      = TEME
TIME_SYSTEM    = UTC
MEAN_ELEMENT_THEORY = SGP/SGP4

EPOCH          = 2025-12-20T14:27:14.498496
MEAN_MOTION    = 15.49685042
ECCENTRICITY   = .00031934
INCLINATION    = 51.6321
RA_OF_ASC_NODE = 103.5427
ARG_OF_PERICENTER = 277.2005
MEAN_ANOMALY   = 82.8620

EPHEMERIS_TYPE = 0
CLASSIFICATION_TYPE = U
NORAD_CAT_ID   = 65616
ELEMENT_SET_NO = 999
REV_AT_EPOCH   = 22
BSTAR          = .12983891E-3
MEAN_MOTION_DOT = .6881E-4
MEAN_MOTION_DDOT = 0

CCSDS_OMM_VERS = 2.0
CREATION_DATE  = 
ORIGINATOR     = 

OBJECT_NAME    = DRAGONFLY
OBJECT_ID      = 1998-067XH
CENTER_NAME    = EARTH
REF_FRAME      = TEME
TIME_SYSTEM    = UTC
MEAN_ELEMENT_THEORY = SGP/SGP4

EPOCH          = 2025-12-20T11:42:45.439488
MEAN_MOTION    = 15.74448787
ECCENTRICITY   = .00074375
INCLINATION    = 51.6254
RA_OF_ASC_NODE = 96.0114
ARG_OF_PERICENTER = 325.9909
MEAN_ANOMALY   = 34.0612

EPHEMERIS_TYPE = 0
CLASSIFICATION_TYPE = U
NORAD_CAT_ID   = 65729
ELEMENT_SET_NO = 999
REV_AT_EPOCH   = 1438
BSTAR          = .98005582E-3
MEAN_MOTION_DOT = .147536E-2
MEAN_MOTION_DDOT = 0

CCSDS_OMM_VERS = 2.0
CREATION_DATE  = 
ORIGINATOR     = 

OBJECT_NAME    = 1998-067XK
OBJECT_ID      = 1998-067XK
CENTER_NAME    = EARTH
REF_FRAME      = TEME
TIME_SYSTEM    = UTC
MEAN_ELEMENT_THEORY = SGP/SGP4

EPOCH          = 2025-12-20T00:10:02.026560
MEAN_MOTION    = 15.67078773
ECCENTRICITY   = .00047639
INCLINATION    = 51.6294
RA_OF_ASC_NODE = 100.3244
ARG_OF_PERICENTER = 292.7833
MEAN_ANOMALY   = 67.2659

EPHEMERIS_TYPE = 0
CLASSIFICATION_TYPE = U
NORAD_CAT_ID   = 65731
ELEMENT_SET_NO = 999
REV_AT_EPOCH   = 1428
BSTAR          = .70175188E-3
MEAN_MOTION_DOT = .76617E-3
MEAN_MOTION_DDOT = 0

CCSDS_OMM_VERS = 2.0
CREATION_DATE  = 
ORIGINATOR     = 

OBJECT_NAME    = RSP-03
OBJECT_ID      = 1998-067XL
CENTER_NAME    = EARTH
REF_FRAME      = TEME
TIME_SYSTEM    = UTC
MEAN_ELEMENT_THEORY = SGP/SGP4

EPOCH          = 2025-12-19T10:11:34.022112
MEAN_MOTION    = 15.70283101
ECCENTRICITY   = .0005658
INCLINATION    = 51.6265
RA_OF_ASC_NODE = 102.4221
ARG_OF_PERICENTER = 294.5755
MEAN_ANOMALY   = 65.4652

EPHEMERIS_TYPE = 0
CLASSIFICATION_TYPE = U
NORAD_CAT_ID   = 65732
ELEMENT_SET_NO = 999
REV_AT_EPOCH   = 1421
BSTAR          = .84699E-3
MEAN_MOTION_DOT = .106087E-2
MEAN_MOTION_DDOT = 0

CCSDS_OMM_VERS = 2.0
CREATION_DATE  = 
ORIGINATOR     = 

OBJECT_NAME    = GHS-01
OBJECT_ID      = 1998-067XM
CENTER_NAME    = EARTH
REF_FRAME      = TEME
TIME_SYSTEM    = UTC
MEAN_ELEMENT_THEORY = SGP/SGP4

EPOCH          = 2025-12-20T11:41:11.076000
MEAN_MOTION    = 15.78117355
ECCENTRICITY   = .00085452
INCLINATION    = 51.6277
RA_OF_ASC_NODE = 95.2602
ARG_OF_PERICENTER = 329.3713
MEAN_ANOMALY   = 30.6788

EPHEMERIS_TYPE = 0
CLASSIFICATION_TYPE = U
NORAD_CAT_ID   = 65733
ELEMENT_SET_NO = 999
REV_AT_EPOCH   = 1440
BSTAR          = .11084718E-2
MEAN_MOTION_DOT = .197582E-2
MEAN_MOTION_DDOT = 0

CCSDS_OMM_VERS = 2.0
CREATION_DATE  = 
ORIGINATOR     = 

OBJECT_NAME    = YOTSUBA-KULOVER
OBJECT_ID      = 1998-067XN
CENTER_NAME    = EARTH
REF_FRAME      = TEME
TIME_SYSTEM    = UTC
MEAN_ELEMENT_THEORY = SGP/SGP4

EPOCH          = 2025-12-20T11:08:10.276512
MEAN_MOTION    = 15.60441767
ECCENTRICITY   = .00018566
INCLINATION    = 51.6291
RA_OF_ASC_NODE = 101.1247
ARG_OF_PERICENTER = 327.3160
MEAN_ANOMALY   = 32.7719

EPHEMERIS_TYPE = 0
CLASSIFICATION_TYPE = U
NORAD_CAT_ID   = 65941
ELEMENT_SET_NO = 999
REV_AT_EPOCH   = 1106
BSTAR          = .62678639E-3
MEAN_MOTION_DOT = .5237E-3
MEAN_MOTION_DDOT = 0

CCSDS_OMM_VERS = 2.0
CREATION_DATE  = 
ORIGINATOR     = 

OBJECT_NAME    = BOTAN
OBJECT_ID      = 1998-067XP
CENTER_NAME    = EARTH
REF_FRAME      = TEME
TIME_SYSTEM    = UTC
MEAN_ELEMENT_THEORY = SGP/SGP4

EPOCH          = 2025-12-20T13:53:44.237472
MEAN_MOTION    = 15.64441775
ECCENTRICITY   = .00029505
INCLINATION    = 51.6283
RA_OF_ASC_NODE = 99.6415
ARG_OF_PERICENTER = 304.2475
MEAN_ANOMALY   = 55.8240

EPHEMERIS_TYPE = 0
CLASSIFICATION_TYPE = U
NORAD_CAT_ID   = 65942
ELEMENT_SET_NO = 999
REV_AT_EPOCH   = 1109
BSTAR          = .83574073E-3
MEAN_MOTION_DOT = .82185E-3
MEAN_MOTION_DDOT = 0

CCSDS_OMM_VERS = 2.0
CREATION_DATE  = 
ORIGINATOR     = 

OBJECT_NAME    = E-KAGAKU-1
OBJECT_ID      = 1998-067XQ
CENTER_NAME    = EARTH
REF_FRAME      = TEME
TIME_SYSTEM    = UTC
MEAN_ELEMENT_THEORY = SGP/SGP4

EPOCH          = 2025-12-18T08:24:49.666176
MEAN_MOTION    = 15.60193795
ECCENTRICITY   = .00013451
INCLINATION    = 51.6302
RA_OF_ASC_NODE = 111.7666
ARG_OF_PERICENTER = 249.8249
MEAN_ANOMALY   = 110.2600

EPHEMERIS_TYPE = 0
CLASSIFICATION_TYPE = U
NORAD_CAT_ID   = 65943
ELEMENT_SET_NO = 999
REV_AT_EPOCH   = 1073
BSTAR          = .84619625E-3
MEAN_MOTION_DOT = .70368E-3
MEAN_MOTION_DDOT = 0

CCSDS_OMM_VERS = 2.0
CREATION_DATE  = 
ORIGINATOR     = 

OBJECT_NAME    = HRC MONOBLOCK CAMERA
OBJECT_ID      = 1998-067XR
CENTER_NAME    = EARTH
REF_FRAME      = TEME
TIME_SYSTEM    = UTC
MEAN_ELEMENT_THEORY = SGP/SGP4

EPOCH          = 2025-12-20T11:52:12.970848
MEAN_MOTION    = 15.54656464
ECCENTRICITY   = .00024641
INCLINATION    = 51.6308
RA_OF_ASC_NODE = 102.8250
ARG_OF_PERICENTER = 220.8988
MEAN_ANOMALY   = 139.1819

EPHEMERIS_TYPE = 0
CLASSIFICATION_TYPE = U
NORAD_CAT_ID   = 66052
ELEMENT_SET_NO = 999
REV_AT_EPOCH   = 1004
BSTAR          = .40451912E-3
MEAN_MOTION_DOT = .26911E-3
MEAN_MOTION_DDOT = 0

CCSDS_OMM_VERS = 2.0
CREATION_DATE  = 
ORIGINATOR     = 

OBJECT_NAME    = HTV-X1
OBJECT_ID      = 2025-241A
CENTER_NAME    = EARTH
REF_FRAME      = TEME
TIME_SYSTEM    = UTC
MEAN_ELEMENT_THEORY = SGP/SGP4

EPOCH          = 2025-12-20T14:27:14.498496
MEAN_MOTION    = 15.49685042
ECCENTRICITY   = .00031934
INCLINATION    = 51.6321
RA_OF_ASC_NODE = 103.5427
ARG_OF_PERICENTER = 277.2005
MEAN_ANOMALY   = 82.8620

EPHEMERIS_TYPE = 0
CLASSIFICATION_TYPE = U
NORAD_CAT_ID   = 66174
ELEMENT_SET_NO = 999
REV_AT_EPOCH   = 51
BSTAR          = .12983891E-3
MEAN_MOTION_DOT = .6881E-4
MEAN_MOTION_DDOT = 0

CCSDS_OMM_VERS = 2.0
CREATION_DATE  = 
ORIGINATOR     = 

OBJECT_NAME    = SZ-21 MODULE
OBJECT_ID      = 2025-246C
CENTER_NAME    = EARTH
REF_FRAME      = TEME
TIME_SYSTEM    = UTC
MEAN_ELEMENT_THEORY = SGP/SGP4

EPOCH          = 2025-12-20T00:23:58.587648
MEAN_MOTION    = 15.62845969
ECCENTRICITY   = .00056139
INCLINATION    = 41.4774
RA_OF_ASC_NODE = 331.6436
ARG_OF_PERICENTER = 298.6843
MEAN_ANOMALY   = 61.3432

EPHEMERIS_TYPE = 0
CLASSIFICATION_TYPE = U
NORAD_CAT_ID   = 66515
ELEMENT_SET_NO = 999
REV_AT_EPOCH   = 558
BSTAR          = .22500266E-3
MEAN_MOTION_DOT = .20613E-3
MEAN_MOTION_DDOT = 0

CCSDS_OMM_VERS = 2.0
CREATION_DATE  = 
ORIGINATOR     = 

OBJECT_NAME    = SHENZHOU-22
OBJECT_ID      = 2025-272A
CENTER_NAME    = EARTH
REF_FRAME      = TEME
TIME_SYSTEM    = UTC
MEAN_ELEMENT_THEORY = SGP/SGP4

EPOCH          = 2025-12-20T09:36:17.868384
MEAN_MOTION    = 15.59501485
ECCENTRICITY   = .00077102
INCLINATION    = 41.4685
RA_OF_ASC_NODE = 330.1895
ARG_OF_PERICENTER = 98.1704
MEAN_ANOMALY   = 262.0009

EPHEMERIS_TYPE = 0
CLASSIFICATION_TYPE = U
NORAD_CAT_ID   = 66645
ELEMENT_SET_NO = 999
REV_AT_EPOCH   = 26519
BSTAR          = .21960295E-3
MEAN_MOTION_DOT = .17645E-3
MEAN_MOTION_DDOT = 0

