CYGNUS NG-23            
1 65616U 25208A   25354.60225114  .00006881  00000+0  12984-3 0  9990
2 65616  51.6321 103.5427 0003193 277.2005  82.8620 15.49685042   229
DRAGONFLY               
1 65729U 98067XH  25354.48802592  .00147536  00000+0  98006-3 0  9997
2 65729  51.6254  96.0114 0007437 325.9909  34.0612 15.74448787 14380
1998-067XK              
1 65731U 98067XK  25354.00696790  .00076617  00000+0  70175-3 0  9997
2 65731  51.6294 100.3244 0004763 292.7833  67.2659 15.67078773 14280
RSP-03                  
1 65732U 98067XL  25353.42469933  .00106087  00000+0  84699-3 0  9991
2 65732  51.6265 102.4221 0005658 294.5755  65.4652 15.70283101 14217
GHS-01                  
1 65733U 98067XM  25354.48693375  .00197582  00000+0  11085-2 0  9996
2 65733  51.6277  95.2602 0008545 329.3713  30.6788 15.78117355 14402
YOTSUBA-KULOVER         
1 65941U 98067XN  25354.46400783  .00052370  00000+0  62679-3 0  9995
2 65941  51.6291 101.1247 0001856 327.3160  32.7719 15.60441767 11067
BOTAN                   
1 65942U 98067XP  25354.57898423  .00082185  00000+0  83574-3 0  9994
2 65942  51.6283  99.6415 0002950 304.2475  55.8240 15.64441775 11097
E-KAGAKU-1              
1 65943U 98067XQ  25352.35057484  .00070368  00000+0  84620-3 0  9996
2 65943  51.6302 111.7666 0001345 249.8249 110.2600 15.60193795 10732
HRC MONOBLOCK CAMERA    
1 66052U 98067XR  25354.49459457  .00026911  00000+0  40452-3 0  9991
2 66052  51.6308 102.8250 0002464 220.8988 139.1819 15.54656464 10048
HTV-X1                  
1 66174U 25241A   25354.60225114  .00006881  00000+0  12984-3 0  9997
2 66174  51.6321 103.5427 0003193 277.2005  82.8620 15.49685042   511
SZ-21 MODULE            
1 66515U 25246C   25354.01665032  .00020613  00000+0  22500-3 0  9997
2 66515  41.4774 331.6436 0005613 298.6843  61.3432 15.62845969  5585
SHENZHOU-22             
1 66645U 25272A   25354.40020681  .00017645  00000+0  21960-3 0  9998
2 66645  41.4685 330.1895 0007710  98.1704 262.0009 15.59501485265195
